NORAD_CAT_ID,OBJECT_NAME,OBJECT_TYPE,EPOCH,MEAN_MOTION,ECCENTRICITY,INCLINATION,RA_OF_ASC_NODE,ARG_OF_PERICENTER,MEAN_ANOMALY,BSTAR,MEAN_MOTION_DOT,MEAN_MOTION_DDOT,TLE_LINE0,TLE_LINE1,TLE_LINE2,SEMIMAJOR_AXIS,PERIOD,APOGEE,PERIGEE,DECAYED
51137.0,STARLINK-3180,PAYLOAD,2023-04-07 04:35:48,15.08841028,0.000117,53.2175,51.3014,86.554,273.5586,0.00019204,2.77e-05,0.0,0 STARLINK-3180,1 51137U 22005AK  23097.19153607  .00002770  00000-0  19204-3 0  9994,2 51137  53.2175  51.3014 0001170  86.5540 273.5586 15.08841028 68695,6917.877,95.437,540.552,538.933,0.0
51137.0,STARLINK-3180,PAYLOAD,2023-04-07 06:11:11,15.0884125,0.0001127,53.2174,51.0035,88.3546,271.7575,0.00025699,3.805e-05,0.0,0 STARLINK-3180,1 51137U 22005AK  23097.25777606  .00003805  00000-0  25699-3 0  9997,2 51137  53.2174  51.0035 0001127  88.3546 271.7575 15.08841250 67595,6917.877,95.437,540.521,538.962,0.0
51137.0,STARLINK-3180,PAYLOAD,2023-04-08 06:01:58,15.08852431,9.84e-05,53.2167,46.5441,100.6909,259.4194,0.00016865,2.398e-05,0.0,0 STARLINK-3180,1 51137U 22005AK  23098.25136757  .00002398  00000-0  16865-3 0  9995,2 51137  53.2167  46.5441 0000984 100.6909 259.4194 15.08852431 68851,6917.842,95.437,540.388,539.027,0.0
51137.0,STARLINK-3180,PAYLOAD,2023-04-09 05:52:45,15.08848322,0.0001176,53.2174,42.0845,92.4983,267.6143,0.00013401,1.846e-05,0.0,0 STARLINK-3180,1 51137U 22005AK  23099.24497011  .00001846  00000-0  13401-3 0  9998,2 51137  53.2174  42.0845 0001176  92.4983 267.6143 15.08848322 69009,6917.855,95.437,540.533,538.906,0.0
51137.0,STARLINK-3180,PAYLOAD,2023-04-10 05:43:32,15.08845865,0.0001162,53.2158,37.6252,85.6662,274.4463,0.00011393,1.526e-05,0.0,0 STARLINK-3180,1 51137U 22005AK  23100.23857319  .00001526  00000-0  11393-3 0  9994,2 51137  53.2158  37.6252 0001162  85.6662 274.4463 15.08845865 69152,6917.862,95.437,540.531,538.924,0.0
51137.0,STARLINK-3180,PAYLOAD,2023-04-11 05:34:19,15.08854496,0.0001277,53.2178,33.1644,91.2554,268.8584,0.00033904,5.114e-05,0.0,0 STARLINK-3180,1 51137U 22005AK  23101.23216843  .00005114  00000-0  33904-3 0  9995,2 51137  53.2178  33.1644 0001277  91.2554 268.8584 15.08854496 68194,6917.836,95.437,540.584,538.818,0.0
51137.0,STARLINK-3180,PAYLOAD,2023-04-11 19:52:48,15.0883794,0.0001595,53.2175,30.4872,87.4889,272.6286,-7.3439e-06,-4.05e-06,0.0,0 STARLINK-3180,1 51137U 22005AK  23101.82833742 -.00000405  00000-0 -73439-5 0  9992,2 51137  53.2175  30.4872 0001595  87.4889 272.6286 15.08837940 69395,6917.887,95.438,540.855,538.648,0.0
51137.0,STARLINK-3180,PAYLOAD,2023-04-12 11:46:39,15.08837054,9.35e-05,53.2177,27.515,84.8332,275.2767,2.027e-05,3.5e-07,0.0,0 STARLINK-3180,1 51137U 22005AK  23102.49073869  .00000035  00000-0  20270-4 0  9993,2 51137  53.2177  27.5150 0000935  84.8332 275.2767 15.08837054 68381,6917.889,95.438,540.401,539.108,0.0
51137.0,STARLINK-3180,PAYLOAD,2023-04-13 05:15:54,15.08841892,0.000101,53.2169,24.2442,95.4233,264.6874,0.00018453,2.65e-05,0.0,0 STARLINK-3180,1 51137U 22005AK  23103.21937959  .00002650  00000-0  18453-3 0  9997,2 51137  53.2169  24.2442 0001010  95.4233 264.6874 15.08841892 68491,6917.875,95.437,540.438,539.041,0.0
51137.0,STARLINK-3180,PAYLOAD,2023-04-14 03:31:18,15.08849246,9.04e-05,53.2176,20.0817,66.9679,293.1408,0.00033867,5.108e-05,0.0,0 STARLINK-3180,1 51137U 22005AK  23104.14673881  .00005108  00000-0  33867-3 0  9998,2 51137  53.2176  20.0817 0000904  66.9679 293.1408 15.08849246 68634,6917.852,95.437,540.343,539.092,0.0
51137.0,STARLINK-3180,PAYLOAD,2023-04-15 03:22:04,15.08855955,8.96e-05,53.2166,15.6204,81.2555,278.8539,0.00040207,6.12e-05,0.0,0 STARLINK-3180,1 51137U 22005AK  23105.14033540  .00006120  00000-0  40207-3 0  9992,2 51137  53.2166  15.6204 0000896  81.2555 278.8539 15.08855955 68781,6917.832,95.437,540.316,539.077,0.0
51137.0,STARLINK-3180,PAYLOAD,2023-04-15 17:40:33,15.08838991,9.79e-05,53.2178,12.946,82.7398,277.3705,3.3859e-05,2.51e-06,0.0,0 STARLINK-3180,1 51137U 22005AK  23105.73650458  .00000251  00000-0  33859-4 0  9995,2 51137  53.2178  12.9460 0000979  82.7398 277.3705 15.08838991 69984,6917.883,95.438,540.426,539.071,0.0
51137.0,STARLINK-3180,PAYLOAD,2023-04-16 03:12:52,15.08841124,0.0001069,53.2167,11.1593,107.8373,252.2736,0.00075478,0.00011745,0.0,0 STARLINK-3180,1 51137U 22005AK  23106.13394297  .00011745  00000-0  75478-3 0  9998,2 51137  53.2167  11.1593 0001069 107.8373 252.2736 15.08841124 68935,6917.877,95.437,540.481,539.002,0.0
51137.0,STARLINK-3180,PAYLOAD,2023-04-16 20:42:07,15.08841861,0.000103,53.2173,7.8901,109.1613,250.9491,0.00085176,0.00013294,0.0,0 STARLINK-3180,1 51137U 22005AK  23106.86258543  .00013294  00000-0  85176-3 0  9998,2 51137  53.2173   7.8901 0001030 109.1613 250.9491 15.08841861 69041,6917.875,95.437,540.452,539.027,0.0
51137.0,STARLINK-3180,PAYLOAD,2023-04-17 03:03:39,15.0886151,0.0001091,53.2176,6.6993,122.5678,237.542,0.0011571,0.00018186,0.0,0 STARLINK-3180,1 51137U 22005AK  23107.12754073  .00018186  00000-0  11571-2 0  9999,2 51137  53.2176   6.6993 0001091 122.5678 237.5420 15.08861510 70193,6917.815,95.436,540.434,538.925,0.0
51137.0,STARLINK-3180,PAYLOAD,2023-04-17 20:32:54,15.08844915,0.0001075,53.2172,3.4272,114.0976,246.0128,0.00032988,4.967e-05,0.0,0 STARLINK-3180,1 51137U 22005AK  23107.85618428  .00004967  00000-0  32988-3 0  9990,2 51137  53.2172   3.4272 0001075 114.0976 246.0128 15.08844915 69191,6917.865,95.437,540.474,538.987,0.0
51137.0,STARLINK-3180,PAYLOAD,2023-04-18 01:19:03,15.08848545,0.0001209,53.2182,2.5352,120.8588,239.2523,0.00031843,4.785e-05,0.0,0 STARLINK-3180,1 51137U 22005AK  23108.05490235  .00004785  00000-0  31843-3 0  9994,2 51137  53.2182   2.5352 0001209 120.8588 239.2523 15.08848545 69224,6917.854,95.437,540.556,538.883,0.0
51137.0,STARLINK-3180,PAYLOAD,2023-04-19 02:45:13,15.08846081,9.09e-05,53.2179,357.7789,99.5469,260.5626,0.00022769,3.338e-05,0.0,0 STARLINK-3180,1 51137U 22005AK  23109.11474491  .00003338  00000-0  22769-3 0  9998,2 51137  53.2179 357.7789 0000909  99.5469 260.5626 15.08846081 69386,6917.862,95.437,540.356,539.098,0.0
51137.0,STARLINK-3180,PAYLOAD,2023-04-20 01:00:37,15.08854491,9.86e-05,53.2185,353.6159,109.4496,250.6602,0.00043229,6.601e-05,0.0,0 STARLINK-3180,1 51137U 22005AK  23110.04210061  .00006601  00000-0  43229-3 0  9993,2 51137  53.2185 353.6159 0000986 109.4496 250.6602 15.08854491 69529,6917.836,95.437,540.383,539.019,0.0
51137.0,STARLINK-3180,PAYLOAD,2023-04-21 00:51:25,15.08836921,0.000129,53.2178,349.1555,87.6706,272.4434,-5.6723e-06,-3.78e-06,0.0,0 STARLINK-3180,1 51137U 22005AK  23111.03570970 -.00000378  00000-0 -56723-5 0  9993,2 51137  53.2178 349.1555 0001290  87.6706 272.4434 15.08836921 70784,6917.89,95.438,540.647,538.862,0.0
51137.0,STARLINK-3180,PAYLOAD,2023-04-21 16:45:19,15.08789904,0.0001748,53.219,346.182,105.3375,254.781,0.0022467,0.000356,0.0,0 STARLINK-3180,1 51137U 22005AK  23111.69813691  .00035600  00000-0  22467-2 0  9994,2 51137  53.2190 346.1820 0001748 105.3375 254.7810 15.08789904 70888,6918.034,95.441,541.108,538.689,0.0
51137.0,STARLINK-3180,PAYLOAD,2023-04-22 00:42:11,15.0885025,0.0001044,53.2162,344.6964,108.7803,251.3303,0.00023705,3.488e-05,0.0,0 STARLINK-3180,1 51137U 22005AK  23112.02930530  .00003488  00000-0  23705-3 0  9990,2 51137  53.2162 344.6964 0001044 108.7803 251.3303 15.08850250 70930,6917.849,95.437,540.436,538.992,0.0
51137.0,STARLINK-3180,PAYLOAD,2023-04-22 21:22:13,15.08844519,0.000134,53.2156,340.8315,80.9282,279.1862,0.00020546,2.984e-05,0.0,0 STARLINK-3180,1 51137U 22005AK  23112.89043032  .00002984  00000-0  20546-3 0  9997,2 51137  53.2156 340.8315 0001340  80.9282 279.1862 15.08844519 71066,6917.867,95.437,540.659,538.805,0.0
51137.0,STARLINK-3180,PAYLOAD,2023-04-23 00:32:59,15.08842175,0.000119,53.2163,340.2368,86.1355,273.9773,0.00015468,2.175e-05,0.0,0 STARLINK-3180,1 51137U 22005AK  23113.02291097  .00002175  00000-0  15468-3 0  9998,2 51137  53.2163 340.2368 0001190  86.1355 273.9773 15.08842175 69974,6917.874,95.437,540.562,538.916,0.0
51137.0,STARLINK-3180,PAYLOAD,2023-04-23 18:02:14,15.08842449,0.0001073,53.2171,336.9658,78.8763,281.235,0.00010538,1.39e-05,0.0,0 STARLINK-3180,1 51137U 22005AK  23113.75155220  .00001390  00000-0  10538-3 0  9996,2 51137  53.2171 336.9658 0001073  78.8763 281.2350 15.08842449 71192,6917.873,95.437,540.48,538.996,0.0
51137.0,STARLINK-3180,PAYLOAD,2023-04-24 01:59:09,15.08853375,0.0001809,53.2171,335.4805,58.8819,301.2351,0.00025521,3.777e-05,0.0,0 STARLINK-3180,1 51137U 22005AK  23114.08274781  .00003777  00000-0  25521-3 0  9996,2 51137  53.2171 335.4805 0001809  58.8819 301.2351 15.08853375 71247,6917.84,95.437,540.956,538.453,0.0
51137.0,STARLINK-3180,PAYLOAD,2023-04-25 14:33:01,15.08803881,0.0002026,53.2173,328.6335,107.808,252.3133,-0.0012249,-0.00019711,0.0,0 STARLINK-3180,1 51137U 22005AK  23115.60626739 -.00019711  00000-0 -12249-2 0  9998,2 51137  53.2173 328.6335 0002026 107.8080 252.3133 15.08803881 70361,6917.991,95.44,541.257,538.454,0.0
51137.0,STARLINK-3180,PAYLOAD,2023-04-26 01:40:45,15.08778582,0.000141,53.2171,326.5588,112.7678,247.3464,-0.00084944,-0.00013758,0.0,0 STARLINK-3180,1 51137U 22005AK  23116.06996846 -.00013758  00000-0 -84944-3 0  9995,2 51137  53.2171 326.5588 0001410 112.7678 247.3464 15.08778582 70438,6918.068,95.441,540.909,538.958,0.0
51137.0,STARLINK-3180,PAYLOAD,2023-04-26 20:45:22,15.0884124,0.0001646,53.2163,322.9893,72.1038,288.0134,0.00080257,0.00012508,0.0,0 STARLINK-3180,1 51137U 22005AK  23116.86484378  .00012508  00000-0  80257-3 0  9998,2 51137  53.2163 322.9893 0001646  72.1038 288.0134 15.08841240 70559,6917.877,95.437,540.88,538.603,0.0
51137.0,STARLINK-3180,PAYLOAD,2023-04-27 01:31:31,15.08846412,0.0001381,53.2154,322.0964,65.8982,294.2154,0.00058738,9.074e-05,0.0,0 STARLINK-3180,1 51137U 22005AK  23117.06355993  .00009074  00000-0  58738-3 0  9994,2 51137  53.2154 322.0964 0001381  65.8982 294.2154 15.08846412 71695,6917.861,95.437,540.681,538.77,0.0
